{"type": "FeatureCollection", "features": [{"type": "Feature", "properties": {"norad_id": 25590, "name": "COSMOS 2361", "group": "musson", "lat": -82.0507440113792, "lon": -138.53160277446943, "alt_km": 974.7266144980731, "timestamp": "2025-12-19T20:43:00.355266+00:00", "meta": {"OBJECT_NAME": "COSMOS 2361", "OBJECT_ID": "1998-076A", "EPOCH": "2025-12-19T05:29:17.270304", "MEAN_MOTION": 13.7321829, "ECCENTRICITY": 0.003014, "INCLINATION": 82.934, "RA_OF_ASC_NODE": 339.2867, "ARG_OF_PERICENTER": 246.789, "MEAN_ANOMALY": 124.3634, "EPHEMERIS_TYPE": 0, "CLASSIFICATION_TYPE": "U", "NORAD_CAT_ID": 25590, "ELEMENT_SET_NO": 999, "REV_AT_EPOCH": 35200, "BSTAR": 4.9018254e-05, "MEAN_MOTION_DOT": 6e-07, "MEAN_MOTION_DDOT": 0}, "tle": {"line1": "1 25590U 98076A   25353.22867211  .00000060  00000+0  49018-4 0  9999", "line2": "2 25590  82.9340 339.2867 0030140 246.7890 124.3634 13.73218290352000"}}, "geometry": {"type": "Point", "coordinates": [-138.53160277446943, -82.0507440113792]}}, {"type": "Feature", "properties": {"norad_id": 26818, "name": "COSMOS 2378", "group": "musson", "lat": 2.4112289470678583, "lon": -5.257705267418382, "alt_km": 1011.4461748819549, "timestamp": "2025-12-19T20:43:00.355287+00:00", "meta": {"OBJECT_NAME": "COSMOS 2378", "OBJECT_ID": "2001-023A", "EPOCH": "2025-12-19T03:34:35.842944", "MEAN_MOTION": 13.74142529, "ECCENTRICITY": 0.00327964, "INCLINATION": 82.927, "RA_OF_ASC_NODE": 354.9721, "ARG_OF_PERICENTER": 186.8384, "MEAN_ANOMALY": 244.73, "EPHEMERIS_TYPE": 0, "CLASSIFICATION_TYPE": "U", "NORAD_CAT_ID": 26818, "ELEMENT_SET_NO": 999, "REV_AT_EPOCH": 23011, "BSTAR": 3.6741446e-05, "MEAN_MOTION_DOT": 5e-07, "MEAN_MOTION_DDOT": 0}, "tle": {"line1": "1 26818U 01023A   25353.14902596  .00000050  00000+0  36741-4 0  9994", "line2": "2 26818  82.9270 354.9721 0032796 186.8384 244.7300 13.74142529230116"}}, "geometry": {"type": "Point", "coordinates": [-5.257705267418382, 2.4112289470678583]}}, {"type": "Feature", "properties": {"norad_id": 27436, "name": "COSMOS 2389", "group": "musson", "lat": -54.69329222199208, "lon": 131.77314215411803, "alt_km": 1021.9963720408068, "timestamp": "2025-12-19T20:43:00.355301+00:00", "meta": {"OBJECT_NAME": "COSMOS 2389", "OBJECT_ID": "2002-026A", "EPOCH": "2025-12-19T06:08:42.332928", "MEAN_MOTION": 13.75155305, "ECCENTRICITY": 0.00474034, "INCLINATION": 82.9508, "RA_OF_ASC_NODE": 302.1607, "ARG_OF_PERICENTER": 43.0186, "MEAN_ANOMALY": 68.3041, "EPHEMERIS_TYPE": 0, "CLASSIFICATION_TYPE": "U", "NORAD_CAT_ID": 27436, "ELEMENT_SET_NO": 999, "REV_AT_EPOCH": 18238, "BSTAR": 3.0886725e-05, "MEAN_MOTION_DOT": 4.5e-07, "MEAN_MOTION_DDOT": 0}, "tle": {"line1": "1 27436U 02026A   25353.25604552  .00000045  00000+0  30887-4 0  9997", "line2": "2 27436  82.9508 302.1607 0047403  43.0186  68.3041 13.75155305182384"}}, "geometry": {"type": "Point", "coordinates": [131.77314215411803, -54.69329222199208]}}, {"type": "Feature", "properties": {"norad_id": 27818, "name": "COSMOS 2398", "group": "musson", "lat": 61.83693865787098, "lon": 74.08175627843191, "alt_km": 963.0426399008793, "timestamp": "2025-12-19T20:43:00.355314+00:00", "meta": {"OBJECT_NAME": "COSMOS 2398", "OBJECT_ID": "2003-023A", "EPOCH": "2025-12-19T04:56:41.902656", "MEAN_MOTION": 13.72386311, "ECCENTRICITY": 0.00327387, "INCLINATION": 82.9484, "RA_OF_ASC_NODE": 267.9334, "ARG_OF_PERICENTER": 94.5219, "MEAN_ANOMALY": 17.6858, "EPHEMERIS_TYPE": 0, "CLASSIFICATION_TYPE": "U", "NORAD_CAT_ID": 27818, "ELEMENT_SET_NO": 999, "REV_AT_EPOCH": 12905, "BSTAR": 4.1461362e-05, "MEAN_MOTION_DOT": 5.3e-07, "MEAN_MOTION_DDOT": 0}, "tle": {"line1": "1 27818U 03023A   25353.20604054  .00000053  00000+0  41461-4 0  9990", "line2": "2 27818  82.9484 267.9334 0032738  94.5219  17.6858 13.72386311129057"}}, "geometry": {"type": "Point", "coordinates": [74.08175627843191, 61.83693865787098]}}, {"type": "Feature", "properties": {"norad_id": 28380, "name": "COSMOS 2407", "group": "musson", "lat": 52.95134840906341, "lon": -142.96021445959263, "alt_km": 944.0132568040099, "timestamp": "2025-12-19T20:43:00.355325+00:00", "meta": {"OBJECT_NAME": "COSMOS 2407", "OBJECT_ID": "2004-028A", "EPOCH": "2025-12-19T03:34:17.610816", "MEAN_MOTION": 13.76314417, "ECCENTRICITY": 0.00400539, "INCLINATION": 82.9599, "RA_OF_ASC_NODE": 208.1474, "ARG_OF_PERICENTER": 37.3868, "MEAN_ANOMALY": 78.485, "EPHEMERIS_TYPE": 0, "CLASSIFICATION_TYPE": "U", "NORAD_CAT_ID": 28380, "ELEMENT_SET_NO": 999, "REV_AT_EPOCH": 7511, "BSTAR": 6.5132214e-05, "MEAN_MOTION_DOT": 7.9e-07, "MEAN_MOTION_DDOT": 0}, "tle": {"line1": "1 28380U 04028A   25353.14881494  .00000079  00000+0  65132-4 0  9998", "line2": "2 28380  82.9599 208.1474 0040053  37.3868  78.4850 13.76314417 75111"}}, "geometry": {"type": "Point", "coordinates": [-142.96021445959263, 52.95134840906341]}}, {"type": "Feature", "properties": {"norad_id": 28521, "name": "COSMOS 2414", "group": "musson", "lat": -72.63318681303662, "lon": 22.58569175728064, "alt_km": 964.2895745662281, "timestamp": "2025-12-19T20:43:00.355336+00:00", "meta": {"OBJECT_NAME": "COSMOS 2414", "OBJECT_ID": "2005-002A", "EPOCH": "2025-12-18T22:44:14.200512", "MEAN_MOTION": 13.87903773, "ECCENTRICITY": 0.00412082, "INCLINATION": 82.9488, "RA_OF_ASC_NODE": 179.9657, "ARG_OF_PERICENTER": 122.3921, "MEAN_ANOMALY": 238.1241, "EPHEMERIS_TYPE": 0, "CLASSIFICATION_TYPE": "U", "NORAD_CAT_ID": 28521, "ELEMENT_SET_NO": 999, "REV_AT_EPOCH": 5881, "BSTAR": 5.0386673e-05, "MEAN_MOTION_DOT": 7.6e-07, "MEAN_MOTION_DDOT": 0}, "tle": {"line1": "1 28521U 05002A   25352.94738658  .00000076  00000+0  50387-4 0  9991", "line2": "2 28521  82.9488 179.9657 0041208 122.3921 238.1241 13.87903773 58819"}}, "geometry": {"type": "Point", "coordinates": [22.58569175728064, -72.63318681303662]}}, {"type": "Feature", "properties": {"norad_id": 32052, "name": "COSMOS 2429", "group": "musson", "lat": 60.556937565457915, "lon": -9.335101966700261, "alt_km": 954.3004968734622, "timestamp": "2025-12-19T20:43:00.355347+00:00", "meta": {"OBJECT_NAME": "COSMOS 2429", "OBJECT_ID": "2007-038A", "EPOCH": "2025-12-19T01:12:46.996416", "MEAN_MOTION": 13.75150032, "ECCENTRICITY": 0.00388911, "INCLINATION": 82.9804, "RA_OF_ASC_NODE": 338.6561, "ARG_OF_PERICENTER": 20.5682, "MEAN_ANOMALY": 339.7029, "EPHEMERIS_TYPE": 0, "CLASSIFICATION_TYPE": "U", "NORAD_CAT_ID": 32052, "ELEMENT_SET_NO": 999, "REV_AT_EPOCH": 91689, "BSTAR": 4.1871298e-05, "MEAN_MOTION_DOT": 5.6e-07, "MEAN_MOTION_DDOT": 0}, "tle": {"line1": "1 32052U 07038A   25353.05054394  .00000056  00000+0  41871-4 0  9993", "line2": "2 32052  82.9804 338.6561 0038891  20.5682 339.7029 13.75150032916892"}}, "geometry": {"type": "Point", "coordinates": [-9.335101966700261, 60.556937565457915]}}, {"type": "Feature", "properties": {"norad_id": 35635, "name": "COSMOS 2454", "group": "musson", "lat": -4.487230235441809, "lon": 162.68884624610286, "alt_km": 924.7018295771886, "timestamp": "2025-12-19T20:43:00.355358+00:00", "meta": {"OBJECT_NAME": "COSMOS 2454", "OBJECT_ID": "2009-039A", "EPOCH": "2025-12-19T06:01:01.932384", "MEAN_MOTION": 13.89929385, "ECCENTRICITY": 0.00202671, "INCLINATION": 82.9554, "RA_OF_ASC_NODE": 163.7092, "ARG_OF_PERICENTER": 56.2877, "MEAN_ANOMALY": 116.5565, "EPHEMERIS_TYPE": 0, "CLASSIFICATION_TYPE": "U", "NORAD_CAT_ID": 35635, "ELEMENT_SET_NO": 999, "REV_AT_EPOCH": 83240, "BSTAR": 3.4330798e-05, "MEAN_MOTION_DOT": 5.8e-07, "MEAN_MOTION_DDOT": 0}, "tle": {"line1": "1 35635U 09039A   25353.25071681  .00000058  00000+0  34331-4 0  9991", "line2": "2 35635  82.9554 163.7092 0020267  56.2877 116.5565 13.89929385832400"}}, "geometry": {"type": "Point", "coordinates": [162.68884624610286, -4.487230235441809]}}, {"type": "Feature", "properties": {"norad_id": 36519, "name": "COSMOS 2463", "group": "musson", "lat": -70.73367631334564, "lon": 0.7769271741091769, "alt_km": 976.9379972450497, "timestamp": "2025-12-19T20:43:00.355369+00:00", "meta": {"OBJECT_NAME": "COSMOS 2463", "OBJECT_ID": "2010-017A", "EPOCH": "2025-12-19T03:51:58.765248", "MEAN_MOTION": 13.71649741, "ECCENTRICITY": 0.00347388, "INCLINATION": 82.9606, "RA_OF_ASC_NODE": 21.9937, "ARG_OF_PERICENTER": 269.5735, "MEAN_ANOMALY": 153.3183, "EPHEMERIS_TYPE": 0, "CLASSIFICATION_TYPE": "U", "NORAD_CAT_ID": 36519, "ELEMENT_SET_NO": 999, "REV_AT_EPOCH": 78325, "BSTAR": 5.8772342e-05, "MEAN_MOTION_DOT": 6.8e-07, "MEAN_MOTION_DDOT": 0}, "tle": {"line1": "1 36519U 10017A   25353.16109682  .00000068  00000+0  58772-4 0  9990", "line2": "2 36519  82.9606  21.9937 0034738 269.5735 153.3183 13.71649741783252"}}, "geometry": {"type": "Point", "coordinates": [0.7769271741091769, -70.73367631334564]}}]}